GEOSCAN-3 (RS92S3)
1 64893U 25155T   26179.59672020  .00017761  00000-0  51168-3 0  9990
2 64893  97.4536 149.6089 0008070 129.0658 231.1305 15.35770377 82605
INNOSAT3 (RS92S0)
1 64894U 25155U   26179.58791001  .00037194  00000-0  79719-3 0  9995
2 64894  97.4483 151.3625 0007865 125.3701 234.8284 15.44631005 82725
KNACKSAT-2
1 67683U 98067XZ  26179.42960994  .00043917  00000-0  51603-3 0  9990
2 67683  51.6279 237.8875 0008633 266.0603  93.9403 15.60960095 22031
