OBJECT_NAME,OBJECT_ID,EPOCH,MEAN_MOTION,ECCENTRICITY,INCLINATION,RA_OF_ASC_NODE,ARG_OF_PERICENTER,MEAN_ANOMALY,EPHEMERIS_TYPE,CLASSIFICATION_TYPE,NORAD_CAT_ID,ELEMENT_SET_NO,REV_AT_EPOCH,BSTAR,MEAN_MOTION_DOT,MEAN_MOTION_DDOT
GEOSCAN 3 (RS92S3),2025-155T,2026-06-28T14:19:16.625280,15.35770377,.00080702,97.4536,149.6089,129.0658,231.1305,0,U,64893,999,8260,.51168059E-3,.17761E-3,0
INNOSAT 3 (RS92S0),2025-155U,2026-06-28T14:06:35.424864,15.44631005,.00078655,97.4483,151.3625,125.3701,234.8284,0,U,64894,999,8272,.79718939E-3,.37194E-3,0
KNACKSAT-2,1998-067XZ,2026-06-28T10:18:38.298816,15.60960095,.00086329,51.6279,237.8875,266.0603,93.9403,0,U,67683,999,2203,.51602585E-3,.43917E-3,0
